IRIDIUM 112             
1 41925U 17003J   24118.84242088  .00000032  00000+0  43030-5 0  9993
2 41925  86.3984  54.4064 0002469  91.1694 268.9784 14.34214268381422
IRIDIUM 111             
1 41926U 17003K   24118.89951597  .00000742  00000+0  25784-3 0  9993
2 41926  86.3984  54.4357 0002521  84.4741 275.6742 14.34220477381412
IRIDIUM 113             
1 42803U 17039A   24118.87948192  .00000236  00000+0  77157-4 0  9992
2 42803  86.3921 288.2248 0002364  90.1019 270.0448 14.34218375359344
IRIDIUM 123             
1 42804U 17039B   24118.92094585  .00000124  00000+0  37310-4 0  9990
2 42804  86.3942 319.7272 0002393  86.1378 274.0092 14.34215498358116
IRIDIUM 120             
1 42805U 17039C   24118.87313842  .00000099  00000+0  28375-4 0  9997
2 42805  86.3911 288.1111 0002067  90.0427 270.1006 14.34217956359339
IRIDIUM 115             
1 42806U 17039D   24118.86931032  .00000149  00000+0  38404-4 0  9994
2 42806  86.4447 288.1298 0002378  91.1540 268.9933 14.43278513361719
IRIDIUM 118             
1 42807U 17039E   24118.81312578  .00000219  00000+0  71216-4 0  9994
2 42807  86.3946 319.7736 0002156  93.5073 266.6369 14.34216387358098
IRIDIUM 117             
1 42808U 17039F   24118.83215007  .00000028  00000+0  30455-5 0  9995
2 42808  86.3943 319.7306 0002229  84.4819 275.6631 14.34215849358125
